TEVEL2-1                
1 63217U 25052H   26095.18563353  .00024135  00000+0  79409-3 0  9995
2 63217  97.3954 351.2240 0004065  54.5644 305.5977 15.31503353 58916
TEVEL2-3                
1 63218U 25052J   26094.65986222  .00026749  00000+0  87910-3 0  9990
2 63218  97.3959 350.7137 0004158  54.5708 305.5921 15.31518198 58838
TEVEL2-2                
1 63219U 25052K   26095.18623899  .00024243  00000+0  79749-3 0  9996
2 63219  97.3956 351.2258 0004065  54.8675 305.2947 15.31508029 58915
TEVEL2-9                
1 63237U 25052AD  26094.94328454  .00021003  00000+0  73068-3 0  9997
2 63237  97.4021 350.5057 0007819  54.2343 305.9623 15.29701759 58824
TEVEL2-7                
1 63238U 25052AE  26095.23318366  .00021619  00000+0  75714-3 0  9995
2 63238  97.4020 350.7381 0007952  53.7009 306.4964 15.29477037 58864
TEVEL2-8                
1 63239U 25052AF  26095.24057536  .00021953  00000+0  76924-3 0  9991
2 63239  97.4020 350.7250 0007948  54.4340 305.7640 15.29456427 58864
HADES-ICM               
1 63492U 25052BN  26095.16836670  .00274628  00000+0  25045-2 0  9993
2 63492  97.3880 356.7473 0006118  76.3003 283.8939 15.67014218 59271
INNOSAT 16 (RS92S7)     
1 64878U 25155C   26095.17045142  .00009674  00000+0  39398-3 0  9997
2 64878  97.4513  62.6064 0012673  84.6086 275.6597 15.24621555 69540
GEOSCAN 6 (RS92S6)      
1 64879U 25155D   26095.16632520  .00015255  00000+0  54775-3 0  9997
2 64879  97.4509  63.5437 0010154  79.9968 280.2417 15.28717588 69604
GEOSCAN 1 (RS92S1)      
1 64880U 25155E   26095.25978889  .00016907  00000+0  59785-3 0  9991
2 64880  97.4506  63.7282 0010097  79.9865 280.2514 15.29197231 69623
239ALFEROV (RS61S)      
1 64881U 25155F   26095.12656782  .00019790  00000+0  66284-3 0  9998
2 64881  97.4510  63.9354 0009778  80.5827 279.6519 15.30930952 69625
GEOSCAN 2 (RS92S2)      
1 64890U 25155Q   26095.26693156  .00016739  00000+0  58669-3 0  9997
2 64890  97.4504  63.8577 0009243  69.8982 290.3252 15.29495661 69639
GEOSCAN 5 (RS92S5)      
1 64891U 25155R   26095.26169085  .00021397  00000+0  70900-3 0  9995
2 64891  97.4503  64.1801 0008687  85.6323 274.5911 15.31271324 69658
GEOSCAN 4 (RS92S4)      
1 64892U 25155S   26095.25219638  .00021147  00000+0  69829-3 0  9996
2 64892  97.4507  64.2008 0008743  86.1596 274.0645 15.31385640 69650
GEOSCAN 3 (RS92S3)      
1 64893U 25155T   26095.27085124  .00026006  00000+0  81779-3 0  9997
2 64893  97.4496  64.4648 0008515  87.7278 272.4939 15.32914157 69673
INNOSAT 3 (RS92S0)      
1 64894U 25155U   26095.27441696  .00049705  00000+0  12847-2 0  9998
2 64894  97.4461  65.3293 0008380  89.0946 271.1259 15.38918781 69730
