[{"OBJECT_NAME":"TEVEL2-1","OBJECT_ID":"2025-052H","EPOCH":"2026-04-05T04:27:18.736992","MEAN_MOTION":15.31503353,"ECCENTRICITY":0.0004065,"INCLINATION":97.3954,"RA_OF_ASC_NODE":351.224,"ARG_OF_PERICENTER":54.5644,"MEAN_ANOMALY":305.5977,"EPHEMERIS_TYPE":0,"CLASSIFICATION_TYPE":"U","NORAD_CAT_ID":63217,"ELEMENT_SET_NO":999,"REV_AT_EPOCH":5891,"BSTAR":0.00079408968,"MEAN_MOTION_DOT":0.00024135,"MEAN_MOTION_DDOT":0},{"OBJECT_NAME":"TEVEL2-3","OBJECT_ID":"2025-052J","EPOCH":"2026-04-04T15:50:12.095808","MEAN_MOTION":15.31518198,"ECCENTRICITY":0.0004158,"INCLINATION":97.3959,"RA_OF_ASC_NODE":350.7137,"ARG_OF_PERICENTER":54.5708,"MEAN_ANOMALY":305.5921,"EPHEMERIS_TYPE":0,"CLASSIFICATION_TYPE":"U","NORAD_CAT_ID":63218,"ELEMENT_SET_NO":999,"REV_AT_EPOCH":5883,"BSTAR":0.00087910128,"MEAN_MOTION_DOT":0.00026749,"MEAN_MOTION_DDOT":0},{"OBJECT_NAME":"TEVEL2-2","OBJECT_ID":"2025-052K","EPOCH":"2026-04-05T04:28:11.048736","MEAN_MOTION":15.31508029,"ECCENTRICITY":0.00040658,"INCLINATION":97.3956,"RA_OF_ASC_NODE":351.2258,"ARG_OF_PERICENTER":54.8675,"MEAN_ANOMALY":305.2947,"EPHEMERIS_TYPE":0,"CLASSIFICATION_TYPE":"U","NORAD_CAT_ID":63219,"ELEMENT_SET_NO":999,"REV_AT_EPOCH":5891,"BSTAR":0.00079748856,"MEAN_MOTION_DOT":0.00024243,"MEAN_MOTION_DDOT":0},{"OBJECT_NAME":"TEVEL2-9","OBJECT_ID":"2025-052AD","EPOCH":"2026-04-04T22:38:19.784256","MEAN_MOTION":15.29701759,"ECCENTRICITY":0.00078196,"INCLINATION":97.4021,"RA_OF_ASC_NODE":350.5057,"ARG_OF_PERICENTER":54.2343,"MEAN_ANOMALY":305.9623,"EPHEMERIS_TYPE":0,"CLASSIFICATION_TYPE":"U","NORAD_CAT_ID":63237,"ELEMENT_SET_NO":999,"REV_AT_EPOCH":5882,"BSTAR":0.00073067767,"MEAN_MOTION_DOT":0.00021003,"MEAN_MOTION_DDOT":0},{"OBJECT_NAME":"TEVEL2-7","OBJECT_ID":"2025-052AE","EPOCH":"2026-04-05T05:35:47.068224","MEAN_MOTION":15.29477037,"ECCENTRICITY":0.00079527,"INCLINATION":97.402,"RA_OF_ASC_NODE":350.7381,"ARG_OF_PERICENTER":53.7009,"MEAN_ANOMALY":306.4964,"EPHEMERIS_TYPE":0,"CLASSIFICATION_TYPE":"U","NORAD_CAT_ID":63238,"ELEMENT_SET_NO":999,"REV_AT_EPOCH":5886,"BSTAR":0.00075714056,"MEAN_MOTION_DOT":0.00021619,"MEAN_MOTION_DDOT":0},{"OBJECT_NAME":"TEVEL2-8","OBJECT_ID":"2025-052AF","EPOCH":"2026-04-05T05:46:25.711104","MEAN_MOTION":15.29456427,"ECCENTRICITY":0.0007948,"INCLINATION":97.402,"RA_OF_ASC_NODE":350.725,"ARG_OF_PERICENTER":54.434,"MEAN_ANOMALY":305.764,"EPHEMERIS_TYPE":0,"CLASSIFICATION_TYPE":"U","NORAD_CAT_ID":63239,"ELEMENT_SET_NO":999,"REV_AT_EPOCH":5886,"BSTAR":0.00076924133,"MEAN_MOTION_DOT":0.00021953,"MEAN_MOTION_DDOT":0},{"OBJECT_NAME":"HADES-ICM","OBJECT_ID":"2025-052BN","EPOCH":"2026-04-05T04:02:26.882880","MEAN_MOTION":15.67014218,"ECCENTRICITY":0.00061185,"INCLINATION":97.388,"RA_OF_ASC_NODE":356.7473,"ARG_OF_PERICENTER":76.3003,"MEAN_ANOMALY":283.8939,"EPHEMERIS_TYPE":0,"CLASSIFICATION_TYPE":"U","NORAD_CAT_ID":63492,"ELEMENT_SET_NO":999,"REV_AT_EPOCH":5927,"BSTAR":0.0025044707,"MEAN_MOTION_DOT":0.00274628,"MEAN_MOTION_DDOT":0},{"OBJECT_NAME":"INNOSAT 16 (RS92S7)","OBJECT_ID":"2025-155C","EPOCH":"2026-04-05T04:05:27.002688","MEAN_MOTION":15.24621555,"ECCENTRICITY":0.00126735,"INCLINATION":97.4513,"RA_OF_ASC_NODE":62.6064,"ARG_OF_PERICENTER":84.6086,"MEAN_ANOMALY":275.6597,"EPHEMERIS_TYPE":0,"CLASSIFICATION_TYPE":"U","NORAD_CAT_ID":64878,"ELEMENT_SET_NO":999,"REV_AT_EPOCH":6954,"BSTAR":0.00039398092,"MEAN_MOTION_DOT":9.674e-5,"MEAN_MOTION_DDOT":0},{"OBJECT_NAME":"GEOSCAN 6 (RS92S6)","OBJECT_ID":"2025-155D","EPOCH":"2026-04-05T03:59:30.497280","MEAN_MOTION":15.28717588,"ECCENTRICITY":0.00101542,"INCLINATION":97.4509,"RA_OF_ASC_NODE":63.5437,"ARG_OF_PERICENTER":79.9968,"MEAN_ANOMALY":280.2417,"EPHEMERIS_TYPE":0,"CLASSIFICATION_TYPE":"U","NORAD_CAT_ID":64879,"ELEMENT_SET_NO":999,"REV_AT_EPOCH":6960,"BSTAR":0.00054775158,"MEAN_MOTION_DOT":0.00015255,"MEAN_MOTION_DDOT":0},{"OBJECT_NAME":"GEOSCAN 1 (RS92S1)","OBJECT_ID":"2025-155E","EPOCH":"2026-04-05T06:14:05.760096","MEAN_MOTION":15.29197231,"ECCENTRICITY":0.00100971,"INCLINATION":97.4506,"RA_OF_ASC_NODE":63.7282,"ARG_OF_PERICENTER":79.9865,"MEAN_ANOMALY":280.2514,"EPHEMERIS_TYPE":0,"CLASSIFICATION_TYPE":"U","NORAD_CAT_ID":64880,"ELEMENT_SET_NO":999,"REV_AT_EPOCH":6962,"BSTAR":0.00059784906,"MEAN_MOTION_DOT":0.00016907,"MEAN_MOTION_DDOT":0},{"OBJECT_NAME":"239ALFEROV (RS61S)","OBJECT_ID":"2025-155F","EPOCH":"2026-04-05T03:02:15.459648","MEAN_MOTION":15.30930952,"ECCENTRICITY":0.00097788,"INCLINATION":97.451,"RA_OF_ASC_NODE":63.9354,"ARG_OF_PERICENTER":80.5827,"MEAN_ANOMALY":279.6519,"EPHEMERIS_TYPE":0,"CLASSIFICATION_TYPE":"U","NORAD_CAT_ID":64881,"ELEMENT_SET_NO":999,"REV_AT_EPOCH":6962,"BSTAR":0.00066283858,"MEAN_MOTION_DOT":0.0001979,"MEAN_MOTION_DDOT":0},{"OBJECT_NAME":"GEOSCAN 2 (RS92S2)","OBJECT_ID":"2025-155Q","EPOCH":"2026-04-05T06:24:22.886784","MEAN_MOTION":15.29495661,"ECCENTRICITY":0.00092439,"INCLINATION":97.4504,"RA_OF_ASC_NODE":63.8577,"ARG_OF_PERICENTER":69.8982,"MEAN_ANOMALY":290.3252,"EPHEMERIS_TYPE":0,"CLASSIFICATION_TYPE":"U","NORAD_CAT_ID":64890,"ELEMENT_SET_NO":999,"REV_AT_EPOCH":6963,"BSTAR":0.00058669252,"MEAN_MOTION_DOT":0.00016739,"MEAN_MOTION_DDOT":0},{"OBJECT_NAME":"GEOSCAN 5 (RS92S5)","OBJECT_ID":"2025-155R","EPOCH":"2026-04-05T06:16:50.089440","MEAN_MOTION":15.31271324,"ECCENTRICITY":0.00086873,"INCLINATION":97.4503,"RA_OF_ASC_NODE":64.1801,"ARG_OF_PERICENTER":85.6323,"MEAN_ANOMALY":274.5911,"EPHEMERIS_TYPE":0,"CLASSIFICATION_TYPE":"U","NORAD_CAT_ID":64891,"ELEMENT_SET_NO":999,"REV_AT_EPOCH":6965,"BSTAR":0.00070900443,"MEAN_MOTION_DOT":0.00021397,"MEAN_MOTION_DDOT":0},{"OBJECT_NAME":"GEOSCAN 4 (RS92S4)","OBJECT_ID":"2025-155S","EPOCH":"2026-04-05T06:03:09.767232","MEAN_MOTION":15.3138564,"ECCENTRICITY":0.00087435,"INCLINATION":97.4507,"RA_OF_ASC_NODE":64.2008,"ARG_OF_PERICENTER":86.1596,"MEAN_ANOMALY":274.0645,"EPHEMERIS_TYPE":0,"CLASSIFICATION_TYPE":"U","NORAD_CAT_ID":64892,"ELEMENT_SET_NO":999,"REV_AT_EPOCH":6965,"BSTAR":0.00069828802,"MEAN_MOTION_DOT":0.00021147,"MEAN_MOTION_DDOT":0},{"OBJECT_NAME":"GEOSCAN 3 (RS92S3)","OBJECT_ID":"2025-155T","EPOCH":"2026-04-05T06:30:01.547136","MEAN_MOTION":15.32914157,"ECCENTRICITY":0.00085159,"INCLINATION":97.4496,"RA_OF_ASC_NODE":64.4648,"ARG_OF_PERICENTER":87.7278,"MEAN_ANOMALY":272.4939,"EPHEMERIS_TYPE":0,"CLASSIFICATION_TYPE":"U","NORAD_CAT_ID":64893,"ELEMENT_SET_NO":999,"REV_AT_EPOCH":6967,"BSTAR":0.00081778567,"MEAN_MOTION_DOT":0.00026006,"MEAN_MOTION_DDOT":0},{"OBJECT_NAME":"INNOSAT 3 (RS92S0)","OBJECT_ID":"2025-155U","EPOCH":"2026-04-05T06:35:09.625344","MEAN_MOTION":15.38918781,"ECCENTRICITY":0.000838,"INCLINATION":97.4461,"RA_OF_ASC_NODE":65.3293,"ARG_OF_PERICENTER":89.0946,"MEAN_ANOMALY":271.1259,"EPHEMERIS_TYPE":0,"CLASSIFICATION_TYPE":"U","NORAD_CAT_ID":64894,"ELEMENT_SET_NO":999,"REV_AT_EPOCH":6973,"BSTAR":0.0012846569,"MEAN_MOTION_DOT":0.00049705,"MEAN_MOTION_DDOT":0}]
